[{"COMMENT":"GENERATED VIA SPACETRACK.ORG API","ORIGINATOR":"18 SPCS","NORAD_CAT_ID":"43477","OBJECT_NAME":"GRACE-FO 2","OBJECT_TYPE":"PAYLOAD","CLASSIFICATION_TYPE":"U","INTLDES":"18047B","EPOCH":"2023-12-17 03:22:09","EPOCH_MICROSECONDS":"700320","MEAN_MOTION":"15.27587514","ECCENTRICITY":"0.0016327","INCLINATION":"88.9824","RA_OF_ASC_NODE":"324.2529","ARG_OF_PERICENTER":"60.2123","MEAN_ANOMALY":"300.0748","EPHEMERIS_TYPE":"0","ELEMENT_SET_NO":"999","REV_AT_EPOCH":"30991","BSTAR":"0.00013402","MEAN_MOTION_DOT":"0.00003656","MEAN_MOTION_DDOT":"0","FILE":"4138151","TLE_LINE0":"0 GRACE-FO 2","TLE_LINE1":"1 43477U 18047B   23351.14039005  .00003656  00000-0  13402-3 0  9994","TLE_LINE2":"2 43477  88.9824 324.2529 0016327  60.2123 300.0748 15.27587514309915","OBJECT_ID":"2018-047B","OBJECT_NUMBER":"43477","SEMIMAJOR_AXIS":"6861.164","PERIOD":"94.266","APOGEE":"494.231","PERIGEE":"471.826","DECAYED":"0"},{"COMMENT":"GENERATED VIA SPACETRACK.ORG API","ORIGINATOR":"18 SPCS","NORAD_CAT_ID":"43477","OBJECT_NAME":"GRACE-FO 2","OBJECT_TYPE":"PAYLOAD","CLASSIFICATION_TYPE":"U","INTLDES":"18047B","EPOCH":"2023-12-17 14:22:29","EPOCH_MICROSECONDS":"133984","MEAN_MOTION":"15.2759306","ECCENTRICITY":"0.0016268","INCLINATION":"88.9825","RA_OF_ASC_NODE":"324.1901","ARG_OF_PERICENTER":"58.7199","MEAN_ANOMALY":"301.5641","EPHEMERIS_TYPE":"0","ELEMENT_SET_NO":"999","REV_AT_EPOCH":"30998","BSTAR":"0.00016106","MEAN_MOTION_DOT":"0.00004388","MEAN_MOTION_DDOT":"0","FILE":"4138654","TLE_LINE0":"0 GRACE-FO 2","TLE_LINE1":"1 43477U 18047B   23351.59894831  .00004388  00000-0  16106-3 0  9996","TLE_LINE2":"2 43477  88.9825 324.1901 0016268  58.7199 301.5641 15.27593060309986","OBJECT_ID":"2018-047B","OBJECT_NUMBER":"43477","SEMIMAJOR_AXIS":"6861.147","PERIOD":"94.266","APOGEE":"494.174","PERIGEE":"471.850","DECAYED":"0"},{"COMMENT":"GENERATED VIA SPACETRACK.ORG API","ORIGINATOR":"18 SPCS","NORAD_CAT_ID":"43477","OBJECT_NAME":"GRACE-FO 2","OBJECT_TYPE":"PAYLOAD","CLASSIFICATION_TYPE":"U","INTLDES":"18047B","EPOCH":"2023-12-17 22:14:08","EPOCH_MICROSECONDS":"648736","MEAN_MOTION":"15.27597186","ECCENTRICITY":"0.0016231","INCLINATION":"88.9825","RA_OF_ASC_NODE":"324.1452","ARG_OF_PERICENTER":"57.6716","MEAN_ANOMALY":"302.6102","EPHEMERIS_TYPE":"0","ELEMENT_SET_NO":"999","REV_AT_EPOCH":"31003","BSTAR":"0.00017901","MEAN_MOTION_DOT":"0.00004874","MEAN_MOTION_DDOT":"0","FILE":"4138912","TLE_LINE0":"0 GRACE-FO 2","TLE_LINE1":"1 43477U 18047B   23351.92648899  .00004874  00000-0  17901-3 0  9998","TLE_LINE2":"2 43477  88.9825 324.1452 0016231  57.6716 302.6102 15.27597186310035","OBJECT_ID":"2018-047B","OBJECT_NUMBER":"43477","SEMIMAJOR_AXIS":"6861.135","PERIOD":"94.266","APOGEE":"494.136","PERIGEE":"471.863","DECAYED":"0"},{"COMMENT":"GENERATED VIA SPACETRACK.ORG API","ORIGINATOR":"18 SPCS","NORAD_CAT_ID":"43477","OBJECT_NAME":"GRACE-FO 2","OBJECT_TYPE":"PAYLOAD","CLASSIFICATION_TYPE":"U","INTLDES":"18047B","EPOCH":"2023-12-18 10:48:47","EPOCH_MICROSECONDS":"775744","MEAN_MOTION":"15.27600709","ECCENTRICITY":"0.0016162","INCLINATION":"88.9825","RA_OF_ASC_NODE":"324.0735","ARG_OF_PERICENTER":"56.0389","MEAN_ANOMALY":"304.2394","EPHEMERIS_TYPE":"0","ELEMENT_SET_NO":"999","REV_AT_EPOCH":"31011","BSTAR":"0.00015941","MEAN_MOTION_DOT":"0.00004344","MEAN_MOTION_DDOT":"0","FILE":"4139249","TLE_LINE0":"0 GRACE-FO 2","TLE_LINE1":"1 43477U 18047B   23352.45055296  .00004344  00000-0  15941-3 0  9994","TLE_LINE2":"2 43477  88.9825 324.0735 0016162  56.0389 304.2394 15.27600709310116","OBJECT_ID":"2018-047B","OBJECT_NUMBER":"43477","SEMIMAJOR_AXIS":"6861.124","PERIOD":"94.265","APOGEE":"494.078","PERIGEE":"471.900","DECAYED":"0"},{"COMMENT":"GENERATED VIA SPACETRACK.ORG API","ORIGINATOR":"18 SPCS","NORAD_CAT_ID":"43477","OBJECT_NAME":"GRACE-FO 2","OBJECT_TYPE":"PAYLOAD","CLASSIFICATION_TYPE":"U","INTLDES":"18047B","EPOCH":"2023-12-18 13:57:27","EPOCH_MICROSECONDS":"512352","MEAN_MOTION":"15.27603044","ECCENTRICITY":"0.0016144","INCLINATION":"88.9826","RA_OF_ASC_NODE":"324.0556","ARG_OF_PERICENTER":"55.6781","MEAN_ANOMALY":"304.5993","EPHEMERIS_TYPE":"0","ELEMENT_SET_NO":"999","REV_AT_EPOCH":"31013","BSTAR":"0.00017398","MEAN_MOTION_DOT":"0.00004738","MEAN_MOTION_DDOT":"0","FILE":"4139416","TLE_LINE0":"0 GRACE-FO 2","TLE_LINE1":"1 43477U 18047B   23352.58156843  .00004738  00000-0  17398-3 0  9993","TLE_LINE2":"2 43477  88.9826 324.0556 0016144  55.6781 304.5993 15.27603044310134","OBJECT_ID":"2018-047B","OBJECT_NUMBER":"43477","SEMIMAJOR_AXIS":"6861.117","PERIOD":"94.265","APOGEE":"494.059","PERIGEE":"471.906","DECAYED":"0"},{"COMMENT":"GENERATED VIA SPACETRACK.ORG API","ORIGINATOR":"18 SPCS","NORAD_CAT_ID":"43477","OBJECT_NAME":"GRACE-FO 2","OBJECT_TYPE":"PAYLOAD","CLASSIFICATION_TYPE":"U","INTLDES":"18047B","EPOCH":"2023-12-18 21:49:06","EPOCH_MICROSECONDS":"864672","MEAN_MOTION":"15.27605666","ECCENTRICITY":"0.00161","INCLINATION":"88.9825","RA_OF_ASC_NODE":"324.0109","ARG_OF_PERICENTER":"54.5965","MEAN_ANOMALY":"305.6785","EPHEMERIS_TYPE":"0","ELEMENT_SET_NO":"999","REV_AT_EPOCH":"31018","BSTAR":"0.00016203","MEAN_MOTION_DOT":"0.00004415","MEAN_MOTION_DDOT":"0","FILE":"4139685","TLE_LINE0":"0 GRACE-FO 2","TLE_LINE1":"1 43477U 18047B   23352.90910723  .00004415  00000-0  16203-3 0  9990","TLE_LINE2":"2 43477  88.9825 324.0109 0016100  54.5965 305.6785 15.27605666310189","OBJECT_ID":"2018-047B","OBJECT_NUMBER":"43477","SEMIMAJOR_AXIS":"6861.109","PERIOD":"94.265","APOGEE":"494.021","PERIGEE":"471.928","DECAYED":"0"},{"COMMENT":"GENERATED VIA SPACETRACK.ORG API","ORIGINATOR":"18 SPCS","NORAD_CAT_ID":"43477","OBJECT_NAME":"GRACE-FO 2","OBJECT_TYPE":"PAYLOAD","CLASSIFICATION_TYPE":"U","INTLDES":"18047B","EPOCH":"2023-12-19 13:32:25","EPOCH_MICROSECONDS":"344672","MEAN_MOTION":"15.27612615","ECCENTRICITY":"0.0016013","INCLINATION":"88.9824","RA_OF_ASC_NODE":"323.9212","ARG_OF_PERICENTER":"52.5127","MEAN_ANOMALY":"307.7575","EPHEMERIS_TYPE":"0","ELEMENT_SET_NO":"999","REV_AT_EPOCH":"31028","BSTAR":"0.00016879","MEAN_MOTION_DOT":"0.00004599","MEAN_MOTION_DDOT":"0","FILE":"4140211","TLE_LINE0":"0 GRACE-FO 2","TLE_LINE1":"1 43477U 18047B   23353.56418223  .00004599  00000-0  16879-3 0  9993","TLE_LINE2":"2 43477  88.9824 323.9212 0016013  52.5127 307.7575 15.27612615310285","OBJECT_ID":"2018-047B","OBJECT_NUMBER":"43477","SEMIMAJOR_AXIS":"6861.088","PERIOD":"94.265","APOGEE":"493.940","PERIGEE":"471.967","DECAYED":"0"},{"COMMENT":"GENERATED VIA SPACETRACK.ORG API","ORIGINATOR":"18 SPCS","NORAD_CAT_ID":"43477","OBJECT_NAME":"GRACE-FO 2","OBJECT_TYPE":"PAYLOAD","CLASSIFICATION_TYPE":"U","INTLDES":"18047B","EPOCH":"2023-12-19 19:49:44","EPOCH_MICROSECONDS":"694336","MEAN_MOTION":"15.27614639","ECCENTRICITY":"0.0015969","INCLINATION":"88.9824","RA_OF_ASC_NODE":"323.8853","ARG_OF_PERICENTER":"51.6761","MEAN_ANOMALY":"308.5922","EPHEMERIS_TYPE":"0","ELEMENT_SET_NO":"999","REV_AT_EPOCH":"31032","BSTAR":"0.00016446","MEAN_MOTION_DOT":"0.00004482","MEAN_MOTION_DDOT":"0","FILE":"4140250","TLE_LINE0":"0 GRACE-FO 2","TLE_LINE1":"1 43477U 18047B   23353.82621174  .00004482  00000-0  16446-3 0  9994","TLE_LINE2":"2 43477  88.9824 323.8853 0015969  51.6761 308.5922 15.27614639310326","OBJECT_ID":"2018-047B","OBJECT_NUMBER":"43477","SEMIMAJOR_AXIS":"6861.082","PERIOD":"94.265","APOGEE":"493.904","PERIGEE":"471.991","DECAYED":"0"},{"COMMENT":"GENERATED VIA SPACETRACK.ORG API","ORIGINATOR":"18 SPCS","NORAD_CAT_ID":"43477","OBJECT_NAME":"GRACE-FO 2","OBJECT_TYPE":"PAYLOAD","CLASSIFICATION_TYPE":"U","INTLDES":"18047B","EPOCH":"2023-12-20 13:07:22","EPOCH_MICROSECONDS":"650816","MEAN_MOTION":"15.27622955","ECCENTRICITY":"0.0015894","INCLINATION":"88.9823","RA_OF_ASC_NODE":"323.7868","ARG_OF_PERICENTER":"49.3297","MEAN_ANOMALY":"310.9331","EPHEMERIS_TYPE":"0","ELEMENT_SET_NO":"999","REV_AT_EPOCH":"31043","BSTAR":"0.00018692","MEAN_MOTION_DOT":"0.00005091","MEAN_MOTION_DDOT":"0","FILE":"4141011","TLE_LINE0":"0 GRACE-FO 2","TLE_LINE1":"1 43477U 18047B   23354.54678994  .00005091  00000-0  18692-3 0  9998","TLE_LINE2":"2 43477  88.9823 323.7868 0015894  49.3297 310.9331 15.27622955310438","OBJECT_ID":"2018-047B","OBJECT_NUMBER":"43477","SEMIMAJOR_AXIS":"6861.057","PERIOD":"94.264","APOGEE":"493.827","PERIGEE":"472.018","DECAYED":"0"},{"COMMENT":"GENERATED VIA SPACETRACK.ORG API","ORIGINATOR":"18 SPCS","NORAD_CAT_ID":"43477","OBJECT_NAME":"GRACE-FO 2","OBJECT_TYPE":"PAYLOAD","CLASSIFICATION_TYPE":"U","INTLDES":"18047B","EPOCH":"2023-12-20 22:33:21","EPOCH_MICROSECONDS":"402720","MEAN_MOTION":"15.27627531","ECCENTRICITY":"0.001585","INCLINATION":"88.9822","RA_OF_ASC_NODE":"323.7329","ARG_OF_PERICENTER":"48.0012","MEAN_ANOMALY":"312.2584","EPHEMERIS_TYPE":"0","ELEMENT_SET_NO":"999","REV_AT_EPOCH":"31049","BSTAR":"0.00019706","MEAN_MOTION_DOT":"0.00005366","MEAN_MOTION_DDOT":"0","FILE":"4141291","TLE_LINE0":"0 GRACE-FO 2","TLE_LINE1":"1 43477U 18047B   23354.93983105  .00005366  00000-0  19706-3 0  9996","TLE_LINE2":"2 43477  88.9822 323.7329 0015850  48.0012 312.2584 15.27627531310498","OBJECT_ID":"2018-047B","OBJECT_NUMBER":"43477","SEMIMAJOR_AXIS":"6861.044","PERIOD":"94.264","APOGEE":"493.784","PERIGEE":"472.034","DECAYED":"0"}]